*******************************************************************************
Ephemeris / WWW_USER Mon Jul 15 19:15:11 2024 Pasadena, USA      / Horizons    
*******************************************************************************
Target body name: (2018 WV1)                      {source: JPL#17}
Center body name: Earth (399)                     {source: DE441}
Center-site name: Gemini South Obs., Cerro Pachon
*******************************************************************************
Start time      : A.D. 2018-Dec-23 23:54:00.0000 UT      
Stop  time      : A.D. 2018-Dec-24 09:30:00.0000 UT      
Step-size       : 1 minutes
*******************************************************************************
Target pole/equ : undefined
Target radii    : undefined                                                    
Center geodetic : 289.2634, -30.2406227, 2.71233  {E-lon(deg),Lat(deg),Alt(km)}
Center cylindric: 289.2634,5517.21435,-3194.81213 {E-lon(deg),Dxy(km),Dz(km)}
Center pole/equ : ITRF93                          {East-longitude positive}
Center radii    : 6378.137, 6378.137, 6356.752 km {Equator_a, b, pole_c}       
Target primary  : Sun
Vis. interferer : MOON (R_eq= 1737.400) km        {source: DE441}
Rel. light bend : Sun                             {source: DE441}
Rel. lght bnd GM: 1.3271E+11 km^3/s^2                                          
Small-body perts: Yes                             {source: SB441-N16}
Atmos refraction: NO (AIRLESS)
RA format       : HMS
Time format     : CAL 
Calendar mode   : Mixed Julian/Gregorian
RTS-only print  : NO       
EOP file        : eop.240715.p241008                                           
EOP coverage    : DATA-BASED 1962-JAN-20 TO 2024-JUL-15. PREDICTS-> 2024-OCT-07
Units conversion: 1 au= 149597870.700 km, c= 299792.458 km/s, 1 day= 86400.0 s 
Table cut-offs 1: Elevation (-90.0deg=NO ),Airmass (>38.000=NO), Daylight (YES)
Table cut-offs 2: Solar elongation (  0.0,180.0=NO ),Local Hour Angle( 0.0=NO )
Table cut-offs 3: RA/DEC angular rate (     0.0=NO )                           
*******************************************************************************
Initial IAU76/J2000 heliocentric ecliptic osculating elements (au, days, deg.):
  EPOCH=  2458458.5 ! 2018-Dec-06.00 (TDB)         Residual RMS= .12928        
   EC= .06869100257422787  QR= .9715505345748198   TP= 2458416.866413563       
   OM= 248.5061090469913   W=  141.3742304527303   IN= 1.905403987972275       
  Equivalent ICRF heliocentric cartesian coordinates (au, au/d):
   X= 2.787163119783287E-01  Y= 8.719775267121872E-01  Z= 3.748421051204766E-01
  VX=-1.676682657337402E-02 VY= 5.516972965834891E-03 VZ= 1.749720915605096E-03
Asteroid physical parameters (km, seconds, rotational period in hours):        
   GM= n.a.                RAD= n.a.               ROTPER= n.a.                
   H= 30.3                 G= .150                 B-V= n.a.                   
                           ALBEDO= n.a.            STYP= n.a.                  
*******************************************************************************
 Date__(UT)__HR:MN     R.A._________(ICRF)_________DEC
******************************************************
$$SOE
 2018-Dec-24 01:57  m  05 59 11.921633 -07 05 45.40585
 2018-Dec-24 01:58  m  05 59 11.838235 -07 05 45.01632
 2018-Dec-24 01:59  m  05 59 11.754588 -07 05 44.62621
 2018-Dec-24 02:00  m  05 59 11.670692 -07 05 44.23551
 2018-Dec-24 02:01  m  05 59 11.586549 -07 05 43.84420
 2018-Dec-24 02:02  m  05 59 11.502161 -07 05 43.45230
 2018-Dec-24 02:03  m  05 59 11.417529 -07 05 43.05980
 2018-Dec-24 02:04  m  05 59 11.332654 -07 05 42.66670
 2018-Dec-24 02:05  m  05 59 11.247538 -07 05 42.27300
 2018-Dec-24 02:06  m  05 59 11.162183 -07 05 41.87869
 2018-Dec-24 02:07  m  05 59 11.076589 -07 05 41.48377
 2018-Dec-24 02:08  m  05 59 10.990758 -07 05 41.08824
 2018-Dec-24 02:09  m  05 59 10.904692 -07 05 40.69210
 2018-Dec-24 02:10  m  05 59 10.818392 -07 05 40.29535
 2018-Dec-24 02:11  m  05 59 10.731860 -07 05 39.89798
 2018-Dec-24 02:12  m  05 59 10.645097 -07 05 39.50000
 2018-Dec-24 02:13  m  05 59 10.558104 -07 05 39.10140
 2018-Dec-24 02:14  m  05 59 10.470883 -07 05 38.70217
 2018-Dec-24 02:15  m  05 59 10.383436 -07 05 38.30233
 2018-Dec-24 02:16  m  05 59 10.295764 -07 05 37.90186
 2018-Dec-24 02:17  m  05 59 10.207868 -07 05 37.50076
 2018-Dec-24 02:18  m  05 59 10.119750 -07 05 37.09904
 2018-Dec-24 02:19  m  05 59 10.031412 -07 05 36.69668
 2018-Dec-24 02:20  m  05 59 09.942855 -07 05 36.29369
 2018-Dec-24 02:21  m  05 59 09.854080 -07 05 35.89008
 2018-Dec-24 02:22  m  05 59 09.765089 -07 05 35.48582
 2018-Dec-24 02:23  m  05 59 09.675884 -07 05 35.08093
 2018-Dec-24 02:24  m  05 59 09.586466 -07 05 34.67540
 2018-Dec-24 02:25  m  05 59 09.496836 -07 05 34.26923
 2018-Dec-24 02:26  m  05 59 09.406996 -07 05 33.86242
 2018-Dec-24 02:27  m  05 59 09.316948 -07 05 33.45496
 2018-Dec-24 02:28  m  05 59 09.226694 -07 05 33.04686
 2018-Dec-24 02:29  m  05 59 09.136233 -07 05 32.63811
 2018-Dec-24 02:30  m  05 59 09.045570 -07 05 32.22872
 2018-Dec-24 02:31  m  05 59 08.954704 -07 05 31.81867
 2018-Dec-24 02:32  m  05 59 08.863637 -07 05 31.40797
 2018-Dec-24 02:33  m  05 59 08.772371 -07 05 30.99662
 2018-Dec-24 02:34  m  05 59 08.680908 -07 05 30.58462
 2018-Dec-24 02:35  m  05 59 08.589249 -07 05 30.17195
 2018-Dec-24 02:36  m  05 59 08.497395 -07 05 29.75863
 2018-Dec-24 02:37  m  05 59 08.405349 -07 05 29.34465
 2018-Dec-24 02:38  m  05 59 08.313111 -07 05 28.93001
 2018-Dec-24 02:39  m  05 59 08.220684 -07 05 28.51470
 2018-Dec-24 02:40  m  05 59 08.128068 -07 05 28.09873
 2018-Dec-24 02:41  m  05 59 08.035266 -07 05 27.68209
 2018-Dec-24 02:42  m  05 59 07.942279 -07 05 27.26479
 2018-Dec-24 02:43  m  05 59 07.849109 -07 05 26.84682
 2018-Dec-24 02:44  m  05 59 07.755757 -07 05 26.42818
 2018-Dec-24 02:45  m  05 59 07.662226 -07 05 26.00886
 2018-Dec-24 02:46  m  05 59 07.568515 -07 05 25.58887
 2018-Dec-24 02:47  m  05 59 07.474628 -07 05 25.16821
 2018-Dec-24 02:48  m  05 59 07.380565 -07 05 24.74687
 2018-Dec-24 02:49  m  05 59 07.286329 -07 05 24.32486
 2018-Dec-24 02:50  m  05 59 07.191920 -07 05 23.90216
 2018-Dec-24 02:51  m  05 59 07.097341 -07 05 23.47878
 2018-Dec-24 02:52  m  05 59 07.002594 -07 05 23.05473
 2018-Dec-24 02:53  m  05 59 06.907679 -07 05 22.62999
 2018-Dec-24 02:54  m  05 59 06.812599 -07 05 22.20456
 2018-Dec-24 02:55  m  05 59 06.717354 -07 05 21.77845
 2018-Dec-24 02:56  m  05 59 06.621948 -07 05 21.35166
 2018-Dec-24 02:57  m  05 59 06.526380 -07 05 20.92417
 2018-Dec-24 02:58  m  05 59 06.430654 -07 05 20.49600
 2018-Dec-24 02:59  m  05 59 06.334770 -07 05 20.06713
 2018-Dec-24 03:00  m  05 59 06.238731 -07 05 19.63757
 2018-Dec-24 03:01  m  05 59 06.142538 -07 05 19.20732
 2018-Dec-24 03:02  m  05 59 06.046192 -07 05 18.77637
 2018-Dec-24 03:03  m  05 59 05.949695 -07 05 18.34473
 2018-Dec-24 03:04  m  05 59 05.853050 -07 05 17.91239
 2018-Dec-24 03:05  m  05 59 05.756257 -07 05 17.47936
 2018-Dec-24 03:06  m  05 59 05.659318 -07 05 17.04562
 2018-Dec-24 03:07  m  05 59 05.562235 -07 05 16.61118
 2018-Dec-24 03:08  m  05 59 05.465010 -07 05 16.17604
 2018-Dec-24 03:09  m  05 59 05.367643 -07 05 15.74020
 2018-Dec-24 03:10  m  05 59 05.270138 -07 05 15.30366
 2018-Dec-24 03:11  m  05 59 05.172496 -07 05 14.86641
 2018-Dec-24 03:12  m  05 59 05.074717 -07 05 14.42845
 2018-Dec-24 03:13  m  05 59 04.976805 -07 05 13.98979
 2018-Dec-24 03:14  m  05 59 04.878761 -07 05 13.55041
 2018-Dec-24 03:15  m  05 59 04.780585 -07 05 13.11033
 2018-Dec-24 03:16  m  05 59 04.682281 -07 05 12.66954
 2018-Dec-24 03:17  m  05 59 04.583850 -07 05 12.22804
 2018-Dec-24 03:18  m  05 59 04.485292 -07 05 11.78582
 2018-Dec-24 03:19  m  05 59 04.386612 -07 05 11.34289
 2018-Dec-24 03:20  m  05 59 04.287808 -07 05 10.89925
 2018-Dec-24 03:21  m  05 59 04.188885 -07 05 10.45489
 2018-Dec-24 03:22  m  05 59 04.089843 -07 05 10.00981
 2018-Dec-24 03:23  m  05 59 03.990683 -07 05 09.56402
 2018-Dec-24 03:24  m  05 59 03.891408 -07 05 09.11751
 2018-Dec-24 03:25  m  05 59 03.792020 -07 05 08.67028
 2018-Dec-24 03:26  m  05 59 03.692520 -07 05 08.22232
 2018-Dec-24 03:27  m  05 59 03.592909 -07 05 07.77365
 2018-Dec-24 03:28  m  05 59 03.493190 -07 05 07.32426
 2018-Dec-24 03:29  m  05 59 03.393365 -07 05 06.87414
 2018-Dec-24 03:30  m  05 59 03.293434 -07 05 06.42330
 2018-Dec-24 03:31  m  05 59 03.193400 -07 05 05.97174
 2018-Dec-24 03:32  m  05 59 03.093264 -07 05 05.51945
 2018-Dec-24 03:33  m  05 59 02.993029 -07 05 05.06643
 2018-Dec-24 03:34  m  05 59 02.892695 -07 05 04.61269
 2018-Dec-24 03:35  m  05 59 02.792265 -07 05 04.15822
 2018-Dec-24 03:36  m  05 59 02.691741 -07 05 03.70302
 2018-Dec-24 03:37  m  05 59 02.591123 -07 05 03.24709
 2018-Dec-24 03:38  m  05 59 02.490414 -07 05 02.79044
 2018-Dec-24 03:39  m  05 59 02.389616 -07 05 02.33305
 2018-Dec-24 03:40  m  05 59 02.288730 -07 05 01.87493
 2018-Dec-24 03:41  m  05 59 02.187758 -07 05 01.41608
 2018-Dec-24 03:42  m  05 59 02.086702 -07 05 00.95649
 2018-Dec-24 03:43  m  05 59 01.985564 -07 05 00.49618
 2018-Dec-24 03:44  m  05 59 01.884344 -07 05 00.03512
 2018-Dec-24 03:45  m  05 59 01.783046 -07 04 59.57334
 2018-Dec-24 03:46  m  05 59 01.681670 -07 04 59.11082
 2018-Dec-24 03:47  m  05 59 01.580219 -07 04 58.64756
 2018-Dec-24 03:48  m  05 59 01.478695 -07 04 58.18357
 2018-Dec-24 03:49  m  05 59 01.377098 -07 04 57.71884
 2018-Dec-24 03:50  m  05 59 01.275431 -07 04 57.25337
 2018-Dec-24 03:51  m  05 59 01.173696 -07 04 56.78716
 2018-Dec-24 03:52  m  05 59 01.071894 -07 04 56.32022
 2018-Dec-24 03:53  m  05 59 00.970027 -07 04 55.85253
 2018-Dec-24 03:54  m  05 59 00.868096 -07 04 55.38411
 2018-Dec-24 03:55  m  05 59 00.766105 -07 04 54.91495
 2018-Dec-24 03:56  m  05 59 00.664053 -07 04 54.44504
 2018-Dec-24 03:57  m  05 59 00.561944 -07 04 53.97440
 2018-Dec-24 03:58  m  05 59 00.459779 -07 04 53.50301
 2018-Dec-24 03:59  m  05 59 00.357559 -07 04 53.03088
